CCSDS_OEM_VERS = 1.0
CREATION_DATE  = 2017-05-11T11:00:33
ORIGINATOR     = GMAT USER

META_START
OBJECT_NAME          = MOPSSat_alt_35785_km_RAAN_0_064
OBJECT_ID            = SatId
CENTER_NAME          = Earth
REF_FRAME            = EME2000
TIME_SYSTEM          = UTC
START_TIME           = 2017-01-01T00:00:00.000
USEABLE_START_TIME   = 2017-01-01T00:00:00.000
USEABLE_STOP_TIME    = 2017-01-02T00:00:00.000
STOP_TIME            = 2017-01-02T00:00:00.000
INTERPOLATION        = Lagrange
INTERPOLATION_DEGREE = 7 
META_STOP


                                                                                   

2017-01-01T12:40:50.000  -4.142895542591750e+04  -7.830523208855079e+03  -6.845975774251996e+02   5.729327177921328e-01  -3.009020708254692e+00  -2.632243971439326e-01
2017-01-01T12:41:00.000  -4.142321508685170e+04  -7.860611332183314e+03  -6.872296391475026e+02   5.751350222016408e-01  -3.008603573344870e+00  -2.631879137222969e-01
2017-01-01T12:41:10.000  -4.141745272632957e+04  -7.890695275853110e+03  -6.898613353087449e+02   5.773370206293432e-01  -3.008184839068570e+00  -2.631512903993816e-01
2017-01-01T12:41:20.000  -4.141166834741124e+04  -7.920775023905217e+03  -6.924926645129248e+02   5.795387119076043e-01  -3.007764505648284e+00  -2.631145271946534e-01
2017-01-01T12:41:30.000  -4.140586195317210e+04  -7.950850560361413e+03  -6.951236253623800e+02   5.817400948674002e-01  -3.007342573307612e+00  -2.630776241276768e-01
2017-01-01T12:41:40.000  -4.140003354668607e+04  -7.980921869316022e+03  -6.977542164657956e+02   5.839411683450164e-01  -3.006919042270050e+00  -2.630405812180067e-01
2017-01-01T12:41:50.000  -4.139418313103086e+04  -8.010988934900221e+03  -7.003844364350787e+02   5.861419311794365e-01  -3.006493912759362e+00  -2.630033984852218e-01
2017-01-01T12:42:00.000  -4.138831070929237e+04  -8.041051741265434e+03  -7.030142838839103e+02   5.883423822111278e-01  -3.006067184999912e+00  -2.629660759489530e-01
2017-01-01T12:42:10.000  -4.138241628457187e+04  -8.071110272547404e+03  -7.056437574245963e+02   5.905425202794076e-01  -3.005638859217175e+00  -2.629286136289284e-01
2017-01-01T12:42:20.000  -4.137649985998788e+04  -8.101164512849070e+03  -7.082728556665768e+02   5.927423442211951e-01  -3.005208935637881e+00  -2.628910115449862e-01
2017-01-01T12:42:30.000  -4.137056143868474e+04  -8.131214446205558e+03  -7.109015772133567e+02   5.949418528684443e-01  -3.004777414490633e+00  -2.628532697171279e-01
2017-01-01T12:42:40.000  -4.136460102381392e+04  -8.161260056675299e+03  -7.135299206704816e+02   5.971410450548160e-01  -3.004344296004553e+00  -2.628153881654007e-01
2017-01-01T12:42:50.000  -4.135861861861471e+04  -8.191301327944607e+03  -7.161578846109431e+02   5.993399195867345e-01  -3.003909580415143e+00  -2.627773669104099e-01
2017-01-01T12:43:00.000  -4.135261422631693e+04  -8.221338243806991e+03  -7.187854676171117e+02   6.015384752784705e-01  -3.003473267957212e+00  -2.627392059727002e-01
2017-01-01T12:43:10.000  -4.134658785017689e+04  -8.251370787984868e+03  -7.214126682651391e+02   6.037367109390909e-01  -3.003035358867497e+00  -2.627009053729845e-01
2017-01-01T12:43:20.000  -4.134053949333892e+04  -8.281398944820467e+03  -7.240394851853952e+02   6.059346254230304e-01  -3.002595853374595e+00  -2.626624651312643e-01
2017-01-01T12:43:30.000  -4.133446915897331e+04  -8.311422698586655e+03  -7.266659170021838e+02   6.081322175796470e-01  -3.002154751708987e+00  -2.626238852677058e-01
2017-01-01T12:43:40.000  -4.132837685024540e+04  -8.341442033643169e+03  -7.292919623474081e+02   6.103294862646577e-01  -3.001712054100796e+00  -2.625851658024435e-01
2017-01-01T12:43:50.000  -4.132226257039149e+04  -8.371456934047250e+03  -7.319176198265095e+02   6.125264303116392e-01  -3.001267760785297e+00  -2.625463067560632e-01
2017-01-01T12:44:00.000  -4.131612632266334e+04  -8.401467383842926e+03  -7.345428880437719e+02   6.147230485531996e-01  -3.000821871998891e+00  -2.625073081492483e-01
2017-01-01T12:44:10.000  -4.130996811032700e+04  -8.431473367060751e+03  -7.371677656023026e+02   6.169193398209620e-01  -3.000374387979012e+00  -2.624681700027734e-01
2017-01-01T12:44:20.000  -4.130378793672493e+04  -8.461474867429903e+03  -7.397922510788441e+02   6.191153029244918e-01  -2.999925308968646e+00  -2.624288923378980e-01
2017-01-01T12:44:30.000  -4.129758580519340e+04  -8.491471868766253e+03  -7.424163430577233e+02   6.213109366796979e-01  -2.999474635210329e+00  -2.623894751758429e-01
2017-01-01T12:44:40.000  -4.129136171909465e+04  -8.521464354819414e+03  -7.450400401174696e+02   6.235062398976416e-01  -2.999022366948486e+00  -2.623499185379937e-01
2017-01-01T12:44:50.000  -4.128511568167675e+04  -8.551452309949607e+03  -7.476633408900286e+02   6.257012114340771e-01  -2.998568504419236e+00  -2.623102224450097e-01
2017-01-01T12:45:00.000  -4.127884769621341e+04  -8.581435718450773e+03  -7.502862440015485e+02   6.278958501399072e-01  -2.998113047860565e+00  -2.622703869177136e-01
2017-01-01T12:45:10.000  -4.127255776597289e+04  -8.611414564703702e+03  -7.529087480857738e+02   6.300901548723935e-01  -2.997655997510068e+00  -2.622304119768933e-01
2017-01-01T12:45:20.000  -4.126624589429641e+04  -8.641388832787157e+03  -7.555308517500282e+02   6.322841244666899e-01  -2.997197353610630e+00  -2.621902976438003e-01
2017-01-01T12:45:30.000  -4.125991208454073e+04  -8.671358506766775e+03  -7.581525536004877e+02   6.344777577569892e-01  -2.996737116406267e+00  -2.621500439397846e-01
2017-01-01T12:45:40.000  -4.125355634007698e+04  -8.701323570694831e+03  -7.607738522421595e+02   6.366710535765078e-01  -2.996275286142043e+00  -2.621096508862875e-01
2017-01-01T12:45:50.000  -4.124717866435467e+04  -8.731284008322720e+03  -7.633947462537295e+02   6.388640107364382e-01  -2.995811863068709e+00  -2.620691185052481e-01
2017-01-01T12:46:00.000  -4.124077906081657e+04  -8.761239803488488e+03  -7.660152342214652e+02   6.410566280543163e-01  -2.995346847436528e+00  -2.620284468185632e-01
2017-01-01T12:46:10.000  -4.123435753293255e+04  -8.791190939961198e+03  -7.686353147255974e+02   6.432489043426294e-01  -2.994880239497733e+00  -2.619876358483011e-01
2017-01-01T12:46:20.000  -4.122791408405225e+04  -8.821137402128154e+03  -7.712549864004432e+02   6.454408384591171e-01  -2.994412039495819e+00  -2.619466856157663e-01
2017-01-01T12:46:30.000  -4.122144871755262e+04  -8.851079174305933e+03  -7.738742478741283e+02   6.476324292563417e-01  -2.993942247676260e+00  -2.619055961424365e-01
2017-01-01T12:46:40.000  -4.121496143679997e+04  -8.881016240918265e+03  -7.764930977841556e+02   6.498236755947097e-01  -2.993470864283757e+00  -2.618643674497217e-01
2017-01-01T12:46:50.000  -4.120845224525105e+04  -8.910948586017510e+03  -7.791115347355393e+02   6.520145763074455e-01  -2.992997889569590e+00  -2.618229995596070e-01
2017-01-01T12:47:00.000  -4.120192114637022e+04  -8.940876193679665e+03  -7.817295573353618e+02   6.542051302295024e-01  -2.992523323785576e+00  -2.617814924941250e-01
2017-01-01T12:47:10.000  -4.119536814364758e+04  -8.970799047916167e+03  -7.843471641850583e+02   6.563953361911101e-01  -2.992047167185414e+00  -2.617398462754725e-01
2017-01-01T12:47:20.000  -4.118879324059570e+04  -9.000717132698197e+03  -7.869643538825414e+02   6.585851930195513e-01  -2.991569420024426e+00  -2.616980609259885e-01
2017-01-01T12:47:30.000  -4.118219644074145e+04  -9.030630431986177e+03  -7.895811250247839e+02   6.607746995413225e-01  -2.991090082558975e+00  -2.616561364681030e-01
2017-01-01T12:47:40.000  -4.117557774762400e+04  -9.060538929740631e+03  -7.921974762087674e+02   6.629638545829265e-01  -2.990609155046322e+00  -2.616140729243243e-01
2017-01-01T12:47:50.000  -4.116893716477187e+04  -9.090442610029302e+03  -7.948134060408520e+02   6.651526569787145e-01  -2.990126637742940e+00  -2.615718703170924e-01
2017-01-01T12:48:00.000  -4.116227469571763e+04  -9.120341456955633e+03  -7.974289131305211e+02   6.673411055656526e-01  -2.989642530905608e+00  -2.615295286688734e-01
2017-01-01T12:48:10.000  -4.115559034399830e+04  -9.150235454658863e+03  -8.000439960903899e+02   6.695291991833247e-01  -2.989156834791419e+00  -2.614870480021613e-01
2017-01-01T12:48:20.000  -4.114888411313844e+04  -9.180124587385060e+03  -8.026586535424194e+02   6.717169366791373e-01  -2.988669549656562e+00  -2.614444283393709e-01
2017-01-01T12:48:30.000  -4.114215600667470e+04  -9.210008839380438e+03  -8.052728841085814e+02   6.739043169005048e-01  -2.988180675758108e+00  -2.614016697029941e-01
2017-01-01T12:48:40.000  -4.113540602815850e+04  -9.239888194880554e+03  -8.078866864099173e+02   6.760913386940639e-01  -2.987690213354190e+00  -2.613587721156155e-01
2017-01-01T12:48:50.000  -4.112863418116127e+04  -9.269762638080292e+03  -8.105000590639110e+02   6.782780009034738e-01  -2.987198162704400e+00  -2.613157355999481e-01
2017-01-01T12:49:00.000  -4.112184046928153e+04  -9.299632153110353e+03  -8.131130006824296e+02   6.804643023676966e-01  -2.986704524070300e+00  -2.612725601788761e-01
2017-01-01T12:49:10.000  -4.111502489612429e+04  -9.329496724124960e+03  -8.157255098793996e+02   6.826502419274156e-01  -2.986209297713915e+00  -2.612292458753253e-01
2017-01-01T12:49:20.000  -4.110818746539298e+04  -9.359356334908840e+03  -8.183375852364239e+02   6.848358183962689e-01  -2.985712483904424e+00  -2.611857927128461e-01
2017-01-01T12:49:30.000  -4.110132818077848e+04  -9.389210969353608e+03  -8.209492253444564e+02   6.870210305957200e-01  -2.985214082910096e+00  -2.611422007149103e-01
2017-01-01T12:49:40.000  -4.109444704600014e+04  -9.419060611280571e+03  -8.235604287883003e+02   6.892058773420848e-01  -2.984714095001261e+00  -2.610984699051696e-01
2017-01-01T12:49:50.000  -4.108754406464777e+04  -9.448905245127427e+03  -8.261711942066788e+02   6.913903574967966e-01  -2.984212520438838e+00  -2.610546003064524e-01
